MEAN_MOTION;ECCENTRICITY;INCLINATION;RA_OF_ASC_NODE;ARG_OF_PERICENTER;MEAN_ANOMALY;BSTAR;MEAN_MOTION_DOT;MEAN_MOTION_DDOT;TYPE
2.00559534;0.0044288;55.5919;14.3226;339.5201;20.3012;0;-7.2E-7;0;Weather
2.00559564;0.0044289;55.5919;14.3226;339.5381;20.2833;0;-7.2E-7;0;Weather
2.00559544;0.0044302;55.592;14.2827;339.6122;20.2075;0;-7.7E-7;0;Weather
2.00559419;0.0044314;55.5921;14.2427;339.6874;20.1313;0;-8.1E-7;0;Weather
2.00559419;0.0044314;55.5921;14.2427;339.6874;20.1313;0;-8.1E-7;0;Weather
2.00559387;0.0044339;55.5921;14.2028;339.79;20.0291;0;-8.5E-7;0;Weather
2.00559387;0.0044339;55.5921;14.2028;339.79;20.0291;0;-8.5E-7;0;Weather
2.00559375;0.0044358;55.5922;14.1629;339.8587;19.9616;0;-8.7E-7;0;Weather
2.00559375;0.0044358;55.5922;14.1629;339.8587;19.9616;0;-8.7E-7;0;Weather
2.00559279;0.0044382;55.5923;14.1031;339.9774;19.8467;0;-9.0E-7;0;Weather
2.00559279;0.004439;55.5923;14.0831;340.0175;19.808;0;-9.1E-7;0;Weather
2.00559236;0.0044406;55.5923;14.0432;340.0897;19.7386;0;-9.3E-7;0;Weather
2.00559231;0.0044412;55.5924;14.0233;340.1186;19.7109;0;-9.4E-7;0;Weather
2.00559224;0.004442;55.5924;14.0034;340.1633;19.6675;0;-9.5E-7;0;Weather
2.00559224;0.004442;55.5924;14.0034;340.1633;19.6675;0;-9.5E-7;0;Weather
2.0055922;0.0044434;55.5924;13.9435;340.2627;19.5703;0;-9.9E-7;0;Weather
2.0055922;0.0044434;55.5924;13.9435;340.2627;19.5703;0;-9.9E-7;0;Weather
2.00559175;0.0044447;55.5924;13.9236;340.3142;19.5193;0;-1.0E-6;0;Weather
2.00559175;0.0044447;55.5924;13.9236;340.3142;19.5193;0;-1.0E-6;0;Weather
2.00559148;0.0044462;55.5925;13.8837;340.391;19.443;0;-1.03E-6;0;Weather
2.00559114;0.0044467;55.5925;13.8637;340.428;19.4061;0;-1.04E-6;0;Weather
2.00559114;0.0044467;55.5925;13.8637;340.428;19.4061;0;-1.04E-6;0;Weather
2.00559118;0.0044492;55.5926;13.8039;340.5459;19.2884;0;-1.06E-6;0;Weather
2.00559079;0.0044499;55.5926;13.784;340.5847;19.2498;0;-1.06E-6;0;Weather
2.00559079;0.0044499;55.5926;13.784;340.5847;19.2498;0;-1.06E-6;0;Weather
2.00559079;0.0044499;55.5926;13.784;340.5847;19.2498;0;-1.06E-6;0;Weather
2.00558983;0.0044535;55.5927;13.6843;340.7615;19.0762;0;-1.0E-6;0;Weather
2.00558983;0.0044535;55.5927;13.6843;340.7615;19.0762;0;-1.0E-6;0;Weather
2.00558957;0.0044547;55.5927;13.6445;340.8366;19.0036;0;-9.5E-7;0;Weather
2.00558862;0.0044556;55.5927;13.6246;340.8571;18.9846;0;-9.2E-7;0;Weather
2.00558862;0.0044556;55.5927;13.6246;340.8571;18.9846;0;-9.2E-7;0;Weather
2.00558862;0.0044556;55.5927;13.6246;340.8571;18.9846;0;-9.2E-7;0;Weather
2.0055869;0.0044588;55.5928;13.5249;341.0107;18.8404;0;-7.8E-7;0;Weather
2.0055869;0.0044588;55.5928;13.5249;341.0107;18.8404;0;-7.8E-7;0;Weather
2.00558643;0.0044603;55.5928;13.4851;341.066;18.7889;0;-7.4E-7;0;Weather
2.00558643;0.0044603;55.5928;13.4851;341.066;18.7889;0;-7.4E-7;0;Weather
2.00558473;0.004463;55.5929;13.4252;341.1501;18.7096;0;-6.9E-7;0;Weather
2.00558473;0.004463;55.5929;13.4252;341.1501;18.7096;0;-6.9E-7;0;Weather
2.00558473;0.004463;55.5929;13.4252;341.1501;18.7096;0;-6.9E-7;0;Weather
2.00558279;0.0044652;55.593;13.3255;341.3269;18.536;0;-6.9E-7;0;Weather
2.00558271;0.0044646;55.593;13.3055;341.374;18.4888;0;-7.1E-7;0;Weather
2.00558153;0.0044655;55.5931;13.2656;341.442;18.4198;0;-7.4E-7;0;Weather
2.00558044;0.0044664;55.5931;13.2057;341.5505;18.3092;0;-8.0E-7;0;Weather
2.00558017;0.0044673;55.5932;13.1656;341.5863;18.2723;0;-8.4E-7;0;Weather
2.00557997;0.0044682;55.5932;13.1457;341.6383;18.2203;0;-8.5E-7;0;Weather
2.00557939;0.004467;55.5932;13.1259;341.6939;18.1651;0;-8.7E-7;0;Weather
2.00557904;0.0044689;55.5933;13.1058;341.7197;18.1397;0;-8.8E-7;0;Weather
2.00557863;0.0044674;55.5933;13.0859;341.752;18.1082;0;-8.9E-7;0;Weather
2.00557841;0.0044677;55.5933;13.0459;341.8521;18.0106;0;-9.1E-7;0;Weather
2.00557835;0.0044679;55.5934;13.026;341.8886;17.9756;0;-9.2E-7;0;Weather
2.00557765;0.0044681;55.5935;12.9662;341.9922;17.8765;0;-9.5E-7;0;Weather
2.0055765;0.0044683;55.5935;12.9462;342.0326;17.8376;0;-9.5E-7;0;Weather
2.00557767;0.0044679;55.5935;12.9262;342.0842;17.7875;0;-9.7E-7;0;Weather
2.00557705;0.0044685;55.5935;12.8864;342.1344;17.7391;0;-9.9E-7;0;Weather
2.00557713;0.0044694;55.5936;12.8465;342.201;17.6737;0;-1.02E-6;0;Weather
2.00557646;0.0044698;55.5936;12.8066;342.268;17.6073;0;-1.05E-6;0;Weather
2.00557646;0.0044698;55.5936;12.8066;342.268;17.6073;0;-1.05E-6;0;Weather
2.00557646;0.0044698;55.5936;12.8066;342.268;17.6073;0;-1.05E-6;0;Weather
2.00557609;0.0044707;55.5937;12.7069;342.4202;17.4553;0;-1.08E-6;0;Weather
2.00557609;0.0044707;55.5937;12.7069;342.4202;17.4553;0;-1.08E-6;0;Weather
2.00557575;0.0044709;55.5938;12.687;342.4523;17.4234;0;-1.08E-6;0;Weather
2.0055756;0.0044713;55.5938;12.667;342.4817;17.3943;0;-1.07E-6;0;Weather
2.00557556;0.0044716;55.5938;12.6471;342.5219;17.3546;0;-1.06E-6;0;Weather
2.00557505;0.004472;55.5938;12.6271;342.5411;17.336;0;-1.04E-6;0;Weather
2.00557505;0.004472;55.5938;12.6271;342.5411;17.336;0;-1.04E-6;0;Weather
2.00557505;0.004472;55.5938;12.6271;342.5411;17.336;0;-1.04E-6;0;Weather
2.00557434;0.0044715;55.594;12.5275;342.6955;17.1876;0;-9.2E-7;0;Weather
2.00557434;0.0044715;55.594;12.5275;342.6955;17.1876;0;-9.2E-7;0;Weather
2.00557312;0.004472;55.594;12.4876;342.7639;17.1227;0;-8.6E-7;0;Weather
2.00557306;0.0044721;55.594;12.4677;342.7935;17.0949;0;-8.3E-7;0;Weather
2.00557212;0.0044723;55.5941;12.4278;342.8501;17.0422;0;-7.7E-7;0;Weather
2.00557095;0.0044737;55.5941;12.368;342.9109;16.9863;0;-7.1E-7;0;Weather
2.00557095;0.0044737;55.5941;12.368;342.9109;16.9863;0;-7.1E-7;0;Weather
2.00557095;0.0044737;55.5941;12.368;342.9109;16.9863;0;-7.1E-7;0;Weather
2.00556991;0.004474;55.5942;12.3081;342.9912;16.9095;0;-6.7E-7;0;Weather
2.00556939;0.0044732;55.5942;12.3081;343.0168;16.8841;0;-6.7E-7;0;Weather
2.00556939;0.0044732;55.5942;12.3081;343.0168;16.8841;0;-6.7E-7;0;Weather
2.00556939;0.0044732;55.5942;12.3081;343.0168;16.8841;0;-6.7E-7;0;Weather
2.00556692;0.004472;55.5944;12.1884;343.1744;16.726;0;-7.0E-7;0;Weather
2.00556686;0.0044729;55.5944;12.1684;343.1965;16.7029;0;-7.1E-7;0;Weather
2.00556598;0.0044728;55.5945;12.1285;343.2519;16.6456;0;-7.4E-7;0;Weather
2.00556598;0.0044728;55.5945;12.1285;343.2519;16.6456;0;-7.4E-7;0;Weather
2.00556492;0.0044727;55.5946;12.0686;343.3404;16.5551;0;-7.9E-7;0;Weather
2.00556492;0.0044727;55.5946;12.0686;343.3404;16.5551;0;-7.9E-7;0;Weather
2.00556492;0.0044727;55.5946;12.0686;343.3404;16.5551;0;-7.9E-7;0;Weather
2.00556492;0.0044727;55.5946;12.0686;343.3404;16.5551;0;-7.9E-7;0;Weather
2.00556492;0.0044727;55.5946;12.0686;343.3404;16.5551;0;-7.9E-7;0;Weather
2.0055637;0.0044717;55.5948;11.9688;343.4766;16.42;0;-8.5E-7;0;Weather
2.00556351;0.0044722;55.5948;11.9489;343.5033;16.3943;0;-8.6E-7;0;Weather
2.00556331;0.0044722;55.5949;11.9289;343.5347;16.3641;0;-8.7E-7;0;Weather
2.00556331;0.0044722;55.5949;11.9289;343.5347;16.3641;0;-8.7E-7;0;Weather
2.00556331;0.0044722;55.5949;11.9289;343.5347;16.3641;0;-8.7E-7;0;Weather
2.00556293;0.0044722;55.595;11.8491;343.6402;16.2628;0;-9.0E-7;0;Weather
2.00556293;0.0044722;55.595;11.8491;343.6402;16.2628;0;-9.0E-7;0;Weather
2.00556218;0.0044695;55.5951;11.8092;343.7192;16.1855;0;-9.3E-7;0;Weather
2.00556179;0.0044697;55.5951;11.7693;343.7577;16.1476;0;-9.5E-7;0;Weather
2.00556179;0.0044697;55.5951;11.7693;343.7577;16.1476;0;-9.5E-7;0;Weather
2.00556153;0.0044694;55.5952;11.7095;343.8349;16.0699;0;-1.0E-6;0;Weather
2.00556145;0.0044685;55.5953;11.6497;343.9063;15.9973;0;-1.03E-6;0;Weather
2.00556102;0.0044681;55.5953;11.6098;343.9555;15.9474;0;-1.03E-6;0;Weather
2.00556097;0.004468;55.5954;11.5898;343.98;15.9227;0;-1.02E-6;0;Weather
2.00556058;0.0044672;55.5954;11.5698;344.008;15.8947;0;-1.01E-6;0;Weather
2.00556058;0.0044672;55.5954;11.5698;344.008;15.8947;0;-1.01E-6;0;Weather
2.00556058;0.0044672;55.5954;11.5698;344.008;15.8947;0;-1.01E-6;0;Weather
2.00555916;0.0044663;55.5956;11.4502;344.1369;15.7691;0;-8.8E-7;0;Weather
2.00555895;0.0044658;55.5956;11.4303;344.1644;15.7428;0;-8.5E-7;0;Weather
2.00555838;0.0044655;55.5957;11.4104;344.1763;15.732;0;-8.2E-7;0;Weather
2.00555746;0.0044649;55.5957;11.3705;344.215;15.6961;0;-7.6E-7;0;Weather
2.00555746;0.0044649;55.5957;11.3705;344.215;15.6961;0;-7.6E-7;0;Weather
2.00555572;0.004465;55.5959;11.2908;344.2887;15.6278;0;-6.6E-7;0;Weather
2.00555572;0.004465;55.5959;11.2908;344.2887;15.6278;0;-6.6E-7;0;Weather
2.00555519;0.0044646;55.5959;11.231;344.3483;15.5707;0;-6.1E-7;0;Weather
2.00555433;0.0044638;55.596;11.2111;344.3712;15.5482;0;-6.0E-7;0;Weather
2.00555433;0.0044638;55.596;11.2111;344.3712;15.5482;0;-6.0E-7;0;Weather
2.00555433;0.0044638;55.596;11.2111;344.3712;15.5482;0;-6.0E-7;0;Weather
2.00555433;0.0044638;55.596;11.2111;344.3712;15.5482;0;-6.0E-7;0;Weather
2.0055509;0.0044621;55.5962;11.0515;344.5268;15.386;0;-6.5E-7;0;Weather
2.00554985;0.0044618;55.5963;11.0116;344.5641;15.346;0;-6.9E-7;0;Weather
2.00554974;0.0044621;55.5964;10.9718;344.6037;15.3043;0;-7.2E-7;0;Weather
2.00554974;0.0044621;55.5964;10.9718;344.6037;15.3043;0;-7.2E-7;0;Weather
2.00554974;0.0044621;55.5964;10.9718;344.6037;15.3043;0;-7.2E-7;0;Weather
2.00554974;0.0044621;55.5964;10.9718;344.6037;15.3043;0;-7.2E-7;0;Weather
2.00554812;0.0044619;55.5967;10.8323;344.7268;15.1814;0;-7.9E-7;0;Weather
2.00554755;0.004462;55.5967;10.8123;344.7456;15.1633;0;-7.9E-7;0;Weather
2.00554743;0.0044609;55.5969;10.7724;344.7849;15.1251;0;-8.1E-7;0;Weather
2.0055482;0.0044623;55.5969;10.7326;344.8151;15.0954;0;-8.4E-7;0;Weather
2.0055462;0.0044595;55.5969;10.6928;344.8521;15.0583;0;-8.7E-7;0;Weather
2.00554647;0.0044568;55.597;10.633;344.9034;15.0054;0;-9.2E-7;0;Weather
2.00554647;0.0044568;55.597;10.633;344.9034;15.0054;0;-9.2E-7;0;Weather
2.00554647;0.0044568;55.597;10.633;344.9034;15.0054;0;-9.2E-7;0;Weather
2.00554611;0.0044566;55.597;10.6131;344.9206;14.9874;0;-9.3E-7;0;Weather
2.00554611;0.0044566;55.597;10.6131;344.9206;14.9874;0;-9.3E-7;0;Weather
2.00554611;0.0044566;55.597;10.6131;344.9206;14.9874;0;-9.3E-7;0;Weather
2.00554611;0.0044566;55.597;10.6131;344.9206;14.9874;0;-9.3E-7;0;Weather
